[{"nameEN":"Adamovka","nameRU":"Адамовка","lat":60.883756906542885,"lng":-59.23993928822831,"spellings":["Adamovka","Адамовка","AAaMoBKa"],"type":"Local","minZoom":4},{"nameEN":"Airfield (Balota)","nameRU":"аэродром","lat":-77.39432680071798,"lng":-65.08488550821086,"spellings":["A F_Balota","аэродром","a3poApoM","aepoApoM","Airfield (Balota)"],"type":"Local","minZoom":4},{"nameEN":"Airfield (Krasno)","nameRU":"аэродром","lat":71.57768019229063,"lng":93.53472709084289,"spellings":["A F_Krasno","аэродром","a3poApoM","aepoApoM","Airfield (Krasno)"],"type":"Local","minZoom":4},{"nameEN":"Airfield (Vybor)","nameRU":"Авиационная база Выбор","lat":44.72091163583642,"lng":-79.86581116311199,"spellings":["A F_Vybor","Авиационная база Выбор","ABNauNoHHaR 6a3a BbI6op","ABNauNoHHaR 6a3a Bbl6op","ABNaYNoHHaR 6a3a BbI6op","ABNaYNoHHaR 6a3a Bbl6op","ABNayNoHHaR 6a3a BbI6op","ABNayNoHHaR 6a3a Bbl6op","ABNauNoHHaR ba3a BbIbop","ABNauNoHHaR ba3a Bblbop","ABNaYNoHHaR ba3a BbIbop","ABNaYNoHHaR ba3a Bblbop","ABNayNoHHaR ba3a BbIbop","ABNayNoHHaR ba3a Bblbop","Airfield (Vybor)"],"type":"Local","minZoom":4},{"nameEN":"Altar","nameRU":"Алтар","lat":26.114713527809528,"lng":4.1012350139340725,"spellings":["Altar","Алтар","AnTap"],"type":"Hill","minZoom":6},{"nameEN":"Arsenovo","nameRU":"Арсеньево","lat":79.09967933329166,"lng":12.378635643705051,"spellings":["Arsenovo","Арсеньево","ApceHbeBo","ApCeHbeBo"],"type":"Camp","minZoom":5},{"nameEN":"Balota","nameRU":"","lat":-77.72022335867607,"lng":-80.51535007525456,"spellings":["Balota"],"type":"RailroadStation","minZoom":6},{"nameEN":"Balota","nameRU":"Балота","lat":-76.94780387154161,"lng":-77.61532979951446,"spellings":["Balota","Балота","BanoTa","GanoTa"],"type":"Village","minZoom":3},{"nameEN":"Baranchik","nameRU":"Баранчик","lat":-36.79954106672739,"lng":49.52097963178943,"spellings":["Baranchik","Баранчик","BapaHчNK","GapaHчNK"],"type":"Hill","minZoom":6},{"nameEN":"Bashnya","nameRU":"Башня","lat":64.90496456858921,"lng":-85.50964236346556,"spellings":["Bashnya","Башня","BaWHR","GaWHR"],"type":"Hill","minZoom":6},{"nameEN":"Belaya Polyana","nameRU":"Белая Поляна","lat":82.78200659929969,"lng":140.21038404388443,"spellings":["Belaya Polyana","Белая Поляна","BenaR NonRHa","GenaR NonRHa"],"type":"Village","minZoom":3},{"nameEN":"Berezhki","nameRU":"Бережки","lat":79.04128432852261,"lng":159.51055560958324,"spellings":["Berezhki","Бережки","BepeXKN","GepeXKN"],"type":"Village","minZoom":3},{"nameEN":"Berezino","nameRU":"","lat":45.06789149139502,"lng":113.62957305087966,"spellings":["Berezino"],"type":"RailroadStation","minZoom":6},{"nameEN":"Berezino","nameRU":"Березино","lat":37.62114008001243,"lng":99.67511961396171,"spellings":["Berezino","Березино","Bepe3NHo","Gepe3NHo"],"type":"City","minZoom":2},{"nameEN":"Black Forest","nameRU":"Черный лес","lat":-3.5893569339493268,"lng":24.160757592053805,"spellings":["Chernyles","Черный лес","YepHbIN nec","YepHblN nec","yepHbIN nec","yepHblN nec","YepHbIN neC","YepHblN neC","yepHbIN neC","yepHblN neC","Black Forest"],"type":"Local","minZoom":4},{"nameEN":"Black Lake","nameRU":"Черное озеро","lat":67.02777830536955,"lng":122.46959402155004,"spellings":["Chernoyeozero","Черное озеро","YepHoe o3epo","yepHoe o3epo","Black Lake"],"type":"Marine","minZoom":5},{"nameEN":"Black Mountain","nameRU":"Черная гора","lat":67.48150401529658,"lng":52.40626488193135,"spellings":["Chernayagora","Черная гора","YepHaR ropa","yepHaR ropa","Black Mountain"],"type":"Hill","minZoom":6},{"nameEN":"Bogat","nameRU":"Богат","lat":67.21729803643862,"lng":-20.42826605810605,"spellings":["Bogat","Богат","BoraT","GoraT"],"type":"Local","minZoom":4},{"nameEN":"Bogatyrka","nameRU":"Богатырка","lat":20.116490909041875,"lng":-147.08600355372462,"spellings":["Bogatyrka","Богатырка","BoraTbIpKa","BoraTblpKa","GoraTbIpKa","GoraTblpKa"],"type":"Village","minZoom":3},{"nameEN":"Bolshoy Kotel","nameRU":"Большой Котел","lat":-30.951883651371464,"lng":-163.78655048823987,"spellings":["Bolshoy Kotel","Большой Котел","BonbWoN KoTen","GonbWoN KoTen"],"type":"Hill","minZoom":6},{"nameEN":"Bor","nameRU":"Бор","lat":-65.67642244918893,"lng":-104.9875382256429,"spellings":["Bor","Бор","Bop","Gop"],"type":"Village","minZoom":3},{"nameEN":"Cap Golova","nameRU":"Мыс Голова","lat":-77.24914622883246,"lng":7.325154656043693,"spellings":["Mys Golova","Мыс Голова","MbIc ronoBa","Mblc ronoBa","MbIC ronoBa","MblC ronoBa","Cap Golova"],"type":"Local","minZoom":4},{"nameEN":"Cernaya Polana","nameRU":"Черная Поляна","lat":78.44686931735451,"lng":94.84232501428527,"spellings":["Chernaya Polyana","Черная Поляна","YepHaR NonRHa","yepHaR NonRHa","Cernaya Polana"],"type":"City","minZoom":2},{"nameEN":"Cherno","nameRU":"","lat":-76.03237768252703,"lng":-32.12102866410028,"spellings":["Cherno"],"type":"RailroadStation","minZoom":6},{"nameEN":"Chernogorsk","nameRU":"Черногорск","lat":-77.66058952299595,"lng":-26.74245052424623,"spellings":["Chernogorsk","Черногорск","YepHoropcK","yepHoropcK","YepHoropCK","yepHoropCK"],"type":"Capital","minZoom":0},{"nameEN":"Chernyeskaly","nameRU":"Черные скалы","lat":81.65648966896528,"lng":-91.06235144232863,"spellings":["Chernyeskaly","Черные скалы","YepHbIe cKanbI","YepHble cKanbl","yepHbIe cKanbI","yepHble cKanbl","YepHbIe CKanbI","YepHble CKanbl","yepHbIe CKanbI","yepHble CKanbl"],"type":"Local","minZoom":4},{"nameEN":"Chernyzaliv","nameRU":"Черный залив","lat":-76.83881990519632,"lng":-8.200499984342734,"spellings":["Chernyzaliv","Черный залив","YepHbIN 3anNB","YepHblN 3anNB","yepHbIN 3anNB","yepHblN 3anNB"],"type":"Marine","minZoom":5},{"nameEN":"Dazhbog","nameRU":"Дажбог","lat":14.051277389981717,"lng":-31.208587063639477,"spellings":["Dazhbog","Дажбог","AaX6or","AaXbor"],"type":"Hill","minZoom":6},{"nameEN":"Devil's Castle","nameRU":"Чертов замок","lat":62.18981013968435,"lng":-24.378066508785576,"spellings":["Chortovzamok","Чертов замок","YepToB 3aMoK","yepToB 3aMoK","Devil's Castle"],"type":"Ruin","minZoom":5},{"nameEN":"Dichina","nameRU":"Дишина","lat":-3.1832729187556654,"lng":-75.57186198573169,"spellings":["Dichina","Дишина","ANWNHa"],"type":"Local","minZoom":4},{"nameEN":"Dobroe","nameRU":"Доброе","lat":83.0550121417672,"lng":113.76869700422681,"spellings":["Dobroye","Доброе","Ao6poe","Aobpoe","Dobroe"],"type":"Village","minZoom":3},{"nameEN":"Dobroye","nameRU":"","lat":83.01175978078923,"lng":110.71000400651627,"spellings":["Dobroye"],"type":"RailroadStation","minZoom":6},{"nameEN":"Dobryy","nameRU":"Добрый","lat":-73.53315201237001,"lng":58.555290502869966,"spellings":["Dobry","Добрый","Ao6pbIN","Ao6pblN","AobpbIN","AobpblN","Dobryy"],"type":"Hill","minZoom":6},{"nameEN":"Dolina","nameRU":"Долина","lat":-28.734072105148794,"lng":75.10439662981878,"spellings":["Dolina","Долина","AonNHa"],"type":"Village","minZoom":3},{"nameEN":"Drakon","nameRU":"Дракон","lat":-77.06123554319257,"lng":72.976179819114,"spellings":["Drakon","Дракон","ApaKoH"],"type":"Local","minZoom":4},{"nameEN":"Drozhino","nameRU":"Дрожжино","lat":-57.20085330957197,"lng":-103.68592923131636,"spellings":["Drozhino","Дрожжино","ApoXXNHo"],"type":"Village","minZoom":3},{"nameEN":"Druzhba","nameRU":"Надежда","lat":52.41678446268038,"lng":78.53571401719587,"spellings":["Druzhba","Надежда","HaAeXAa"],"type":"Camp","minZoom":5},{"nameEN":"Dubina","nameRU":"Дубина","lat":11.51319822675418,"lng":71.09814204732292,"spellings":["Dubina","Дубина","Ay6NHa","AybNHa"],"type":"Hill","minZoom":6},{"nameEN":"Dubnik","nameRU":"Дубник","lat":47.10857698712793,"lng":-105.39695497983985,"spellings":["Dubnik","Дубник","Ay6HNK","AybHNK"],"type":"Local","minZoom":4},{"nameEN":"Dubovo","nameRU":"Дубово","lat":-69.74314825956198,"lng":-27.28730747539075,"spellings":["Dubovo","Дубово","Ay6oBo","AyboBo"],"type":"City","minZoom":2},{"nameEN":"Dubrovka","nameRU":"Дубровка","lat":39.86395632257474,"lng":53.3889690507736,"spellings":["Dubrovka","Дубровка","Ay6poBKa","AybpoBKa"],"type":"Village","minZoom":3},{"nameEN":"Elektro","nameRU":"","lat":-78.7216423830911,"lng":53.06382669911584,"spellings":["Elektro"],"type":"RailroadStation","minZoom":6},{"nameEN":"Elektrozavodsk","nameRU":"Электрозаводск","lat":-79.1527833188169,"lng":52.53878971338481,"spellings":["Elektrozavodsk","Электрозаводск","3neKTpo3aBoAcK","3neKTpo3aBoACK"],"type":"City","minZoom":2},{"nameEN":"Erbenka","nameRU":"Ербенка","lat":-66.19389926816334,"lng":-115.6882855729997,"spellings":["Erbenka","Ербенка","Еp6eHKa","ЕpbeHKa"],"type":"Hill","minZoom":6},{"nameEN":"Galkino","nameRU":"Галкино","lat":18.567348303980406,"lng":-155.01715368167115,"spellings":["Galkino","Галкино","ranKNHo"],"type":"Local","minZoom":4},{"nameEN":"Glaza","nameRU":"Глаза","lat":29.321479808666847,"lng":-13.083601588592128,"spellings":["Glaza","Глаза","rna3a"],"type":"Marine","minZoom":5},{"nameEN":"Glubokoyeozero","nameRU":"Глубокое озеро","lat":82.35405852916173,"lng":-141.68613646584376,"spellings":["Glubokoyeozero","Глубокое озеро","rny6oKoe o3epo","rnyboKoe o3epo"],"type":"Marine","minZoom":5},{"nameEN":"Gnomovzamok","nameRU":"Гномский замок","lat":24.839417971774914,"lng":-11.639139685053916,"spellings":["Gnomovzamok","Гномский замок","rHoMcKNN 3aMoK","rHoMCKNN 3aMoK"],"type":"Ruin","minZoom":5},{"nameEN":"Gorka","nameRU":"Горка","lat":21.680477944310745,"lng":35.302425720730035,"spellings":["Gorka","Горка","ropKa"],"type":"City","minZoom":2},{"nameEN":"Green Mountain","nameRU":"Зеленая гора","lat":-40.297582282984735,"lng":-94.80039239936578,"spellings":["Zelenayagora","Зеленая гора","3eneHaR ropa","Green Mountain"],"type":"Hill","minZoom":6},{"nameEN":"Grishino","nameRU":"Гришино","lat":45.959883695115934,"lng":-44.79102630366873,"spellings":["Grishino","Гришино","rpNWNHo"],"type":"Village","minZoom":3},{"nameEN":"Grozovoy Pass","nameRU":"Грозовой перевал","lat":83.54153172812295,"lng":-104.94880228411641,"spellings":["Grozovypereval","Грозовой перевал","rpo3oBoN nepeBan","Grozovoy Pass"],"type":"Local","minZoom":4},{"nameEN":"Grozovyedoly","nameRU":"Грозовые доли","lat":82.26819534467242,"lng":55.189783536569365,"spellings":["Grozovyedoly","Грозовые доли","rpo3oBbIe AonN","rpo3oBble AonN"],"type":"Local","minZoom":4},{"nameEN":"Grubyeskaly","nameRU":"Грубые скалы","lat":66.1112726468835,"lng":116.45942115716838,"spellings":["Grubyeskaly","Грубые скалы","rpy6bIe cKanbI","rpy6ble cKanbl","rpy6bIe CKanbI","rpy6ble CKanbl","rpybbIe cKanbI","rpybble cKanbl","rpybbIe CKanbI","rpybble CKanbl"],"type":"Local","minZoom":4},{"nameEN":"Guglovo","nameRU":"Гуглово","lat":-29.810032278855235,"lng":10.917314339712489,"spellings":["Guglovo","Гуглово","ryrnoBo"],"type":"Village","minZoom":3},{"nameEN":"Gvozdno","nameRU":"Гвоздно","lat":66.42157960798328,"lng":15.431633508822442,"spellings":["Gvozdno","Гвоздно","rBo3AHo"],"type":"Village","minZoom":3},{"nameEN":"Kabanino","nameRU":"Кабанино","lat":15.273434879455017,"lng":-60.14279860210379,"spellings":["Kabanino","Кабанино","Ka6aHNHo","KabaHNHo"],"type":"Village","minZoom":3},{"nameEN":"Kalinka","nameRU":"Калинка","lat":59.90226382091699,"lng":-104.30742187541087,"spellings":["Kalinka","Калинка","KanNHKa"],"type":"Local","minZoom":4},{"nameEN":"Kalinovka","nameRU":"Калиновка","lat":76.67695266889748,"lng":-11.614618975277807,"spellings":["Kalinovka","Калиновка","KanNHoBKa"],"type":"Village","minZoom":3},{"nameEN":"Kalmyk","nameRU":"Калмык","lat":-56.47571755174828,"lng":-23.913845403245737,"spellings":["Kalmyk","Калмык","KanMbIK","KanMblK"],"type":"Hill","minZoom":6},{"nameEN":"Kamenka","nameRU":"Каменка","lat":-78.20281700786443,"lng":-135.1673566212677,"spellings":["Kamenka","Каменка","KaMeHKa"],"type":"Village","minZoom":3},{"nameEN":"Kamenka","nameRU":"","lat":-78.37912051843499,"lng":-137.49659805267137,"spellings":["Kamenka"],"type":"RailroadStation","minZoom":6},{"nameEN":"Kamensk","nameRU":"Каменск","lat":81.08202012071146,"lng":-27.417685332255537,"spellings":["Kamensk","Каменск","KaMeHcK","KaMeHCK"],"type":"Village","minZoom":3},{"nameEN":"Kamyshovo","nameRU":"","lat":-70.10414284604279,"lng":90.60327058717783,"spellings":["Kamyshovo"],"type":"RailroadStation","minZoom":6},{"nameEN":"Kamyshovo","nameRU":"Камышово","lat":-70.79026371713546,"lng":95.1013179488788,"spellings":["Kamyshovo","Камышово","KaMbIWoBo","KaMblWoBo"],"type":"Village","minZoom":3},{"nameEN":"Karer Krasnaya Zarya","nameRU":"Kарьер Красная Заря","lat":76.74284923082243,"lng":13.637169547862678,"spellings":["Karer Krasnaya Zarya","Kарьер Красная Заря","Kapbep KpacHaR 3apR","Kapbep KpaCHaR 3apR"],"type":"Local","minZoom":4},{"nameEN":"Karmanovka","nameRU":"Кармановка","lat":81.95225832349414,"lng":107.09336881253643,"spellings":["Karmanovka","Кармановка","KapMaHoBKa"],"type":"Village","minZoom":3},{"nameEN":"Khelm","nameRU":"Хелм","lat":53.452091319794604,"lng":98.70077734614912,"spellings":["Khelm","Хелм","XenM"],"type":"Village","minZoom":3},{"nameEN":"Kikimora","nameRU":"Кикимора","lat":-36.95358536835479,"lng":-138.9867114158849,"spellings":["Kikimora","Кикимора","KNKNMopa"],"type":"Hill","minZoom":6},{"nameEN":"Klen","nameRU":"Клен","lat":60.16523524531942,"lng":79.36085285096078,"spellings":["Klen","Клен","KneH"],"type":"Hill","minZoom":6},{"nameEN":"Klenovyipereval","nameRU":"Кленовый перевал","lat":63.06489387737288,"lng":65.55673283471612,"spellings":["Klenovyipereval","Кленовый перевал","KneHoBbIN nepeBan","KneHoBblN nepeBan"],"type":"Local","minZoom":4},{"nameEN":"Klyuch","nameRU":"Ключ","lat":77.04004639972312,"lng":29.84617230023044,"spellings":["Klyuch","Ключ","Knюч"],"type":"Ruin","minZoom":5},{"nameEN":"Koman","nameRU":"Коман","lat":-12.251031132318587,"lng":-142.40713573219097,"spellings":["Koman","Коман","KoMaH"],"type":"Hill","minZoom":6},{"nameEN":"Komarovo","nameRU":"","lat":-77.28935213221304,"lng":-96.98133438602225,"spellings":["Komarovo"],"type":"RailroadStation","minZoom":6},{"nameEN":"Komarovo","nameRU":"Комарово","lat":-77.07640767944345,"lng":-96.27321696720722,"spellings":["Komarovo","Комарово","KoMapoBo"],"type":"Village","minZoom":3},{"nameEN":"Kometa","nameRU":"Комета","lat":-70.03091138200689,"lng":52.20017792114959,"spellings":["Kometa","Комета","KoMeTa"],"type":"Camp","minZoom":5},{"nameEN":"Kopyto","nameRU":"Копыто","lat":-67.48863460834757,"lng":-2.0441068506050057,"spellings":["Kopyto","Копыто","KonbITo","KonblTo"],"type":"Hill","minZoom":6},{"nameEN":"Kotka","nameRU":"Котька","lat":-23.67413865218652,"lng":-47.193377869750435,"spellings":["Kotka","Котька","KoTbKa"],"type":"Local","minZoom":4},{"nameEN":"Kozlovka","nameRU":"Козловка","lat":-58.69967553345132,"lng":-80.4534042084377,"spellings":["Kozlovka","Козловка","Ko3noBKa"],"type":"Village","minZoom":3},{"nameEN":"Krasnoe","nameRU":"Красное","lat":82.95583116549493,"lng":-35.042089290809535,"spellings":["Krasnoye","Красное","KpacHoe","KpaCHoe","Krasnoe"],"type":"Village","minZoom":3},{"nameEN":"Krasnostav","nameRU":"Красностав","lat":69.83848019218618,"lng":73.25115076459393,"spellings":["Krasnostav","Красностав","KpacHocTaB","KpaCHoCTaB"],"type":"City","minZoom":2},{"nameEN":"Krona","nameRU":"Крона","lat":28.338300090847547,"lng":-146.19602608738128,"spellings":["Krona","Крона","KpoHa"],"type":"Ruin","minZoom":5},{"nameEN":"Krutoy Cap","nameRU":"Мыс Крутой","lat":-66.53809442997485,"lng":126.92603527569543,"spellings":["Mys Krutoy","Мыс Крутой","MbIc KpyToN","Mblc KpyToN","MbIC KpyToN","MblC KpyToN","Krutoy Cap"],"type":"Local","minZoom":4},{"nameEN":"Krutyeskaly","nameRU":"Крутые скалы","lat":77.99263782244056,"lng":156.3608308893122,"spellings":["Krutyeskaly","Крутые скалы","KpyTbIe cKanbI","KpyTble cKanbl","KpyTbIe CKanbI","KpyTble CKanbl"],"type":"Local","minZoom":4},{"nameEN":"Kumyrna","nameRU":"Кумырна","lat":-39.544328218007394,"lng":7.640353125395949,"spellings":["Kumyrna","Кумырна","KyMbIpHa","KyMblpHa"],"type":"Village","minZoom":3},{"nameEN":"Kurgan","nameRU":"Курган","lat":-51.469266106001825,"lng":-103.80977576548501,"spellings":["Kurgan","Курган","KypraH"],"type":"Hill","minZoom":6},{"nameEN":"Kustryk","nameRU":"Кустрык","lat":-54.638192045822336,"lng":-68.90765286243746,"spellings":["Kustryk","Кустрык","KycTpbIK","KycTpblK","KyCTpbIK","KyCTpblK"],"type":"Hill","minZoom":6},{"nameEN":"Lesnoy Khrebet","nameRU":"Лесной хребет","lat":-3.306469590284008,"lng":3.6350025322006276,"spellings":["Lesnoykhrebet","Лесной хребет","NecHoN xpe6eT","NeCHoN xpe6eT","NecHoN xpebeT","NeCHoN xpebeT","Lesnoy Khrebet"],"type":"Local","minZoom":4},{"nameEN":"Lopatino","nameRU":"Лопатино","lat":42.262104520433645,"lng":-116.63557596099483,"spellings":["Lopatino","Лопатино","NonaTNHo"],"type":"Village","minZoom":3},{"nameEN":"Lysayagora","nameRU":"Лысая гора","lat":79.64876726130561,"lng":-28.011651502149792,"spellings":["Lysayagora","Лысая гора","NbIcaR ropa","NblcaR ropa","NbICaR ropa","NblCaR ropa"],"type":"Hill","minZoom":6},{"nameEN":"M B_Kamensk","nameRU":"военная база","lat":81.99489347473703,"lng":-2.7823723125917716,"spellings":["M B_Kamensk","военная база","BoeHHaR 6a3a","BoeHHaR ba3a"],"type":"Local","minZoom":4},{"nameEN":"M B_Pavlovo","nameRU":"военная база","lat":-71.15861663067051,"lng":-134.3763659833292,"spellings":["M B_Pavlovo","военная база","BoeHHaR 6a3a","BoeHHaR ba3a"],"type":"Local","minZoom":4},{"nameEN":"M B_Tisy","nameRU":"военная база","lat":79.72394489416142,"lng":-144.45584668391663,"spellings":["M B_Tisy","военная база","BoeHHaR 6a3a","BoeHHaR ba3a"],"type":"Local","minZoom":4},{"nameEN":"M B_V M C","nameRU":"военная база","lat":7.416166170835622,"lng":-78.30642961974756,"spellings":["M B_V M C","военная база","BoeHHaR 6a3a","BoeHHaR ba3a"],"type":"Local","minZoom":4},{"nameEN":"M B_Zeleno","nameRU":"военная база","lat":-53.70920462686956,"lng":-125.46359647370102,"spellings":["M B_Zeleno","военная база","BoeHHaR 6a3a","BoeHHaR ba3a"],"type":"Local","minZoom":4},{"nameEN":"Makosh","nameRU":"Макошь","lat":-31.72861660453884,"lng":-2.535854430345123,"spellings":["Makosh","Макошь","MaKoWb"],"type":"Local","minZoom":4},{"nameEN":"Malinovka","nameRU":"Малиновка","lat":-8.697514721763488,"lng":66.3476782731896,"spellings":["Malinovka","Малиновка","ManNHoBKa"],"type":"Hill","minZoom":6},{"nameEN":"Maryanka","nameRU":"Марьянка","lat":-71.31852737812143,"lng":-116.90677275114516,"spellings":["Maryanka","Марьянка","MapbRHKa"],"type":"Local","minZoom":4},{"nameEN":"Matveyevo","nameRU":"Матвеево","lat":-13.037408031138135,"lng":-83.18797184245358,"spellings":["Matveyevo","Матвеево","MaTBeeBo"],"type":"Local","minZoom":4},{"nameEN":"Mayak","nameRU":"Маяк","lat":-60.78173191294111,"lng":98.57745060582825,"spellings":["Mayak","Маяк","MaRK"],"type":"Hill","minZoom":6},{"nameEN":"Medvezhilugi","nameRU":"Medvezhi lugi","lat":75.76212344161156,"lng":37.9465944246958,"spellings":["Medvezhilugi","Medvezhi lugi"],"type":"Local","minZoom":4},{"nameEN":"Metalurg","nameRU":"Металлург","lat":-27.862454932816302,"lng":-156.537528086719,"spellings":["Metalurg","Металлург","MeTannypr"],"type":"Camp","minZoom":5},{"nameEN":"Mogilevka","nameRU":"Могилевка","lat":-54.204147600206575,"lng":-7.040207117417055,"spellings":["Mogilevka","Могилевка","MorNneBKa"],"type":"Village","minZoom":3},{"nameEN":"Msta","nameRU":"Мста","lat":-49.682283305349685,"lng":76.20319562457789,"spellings":["Msta","Мста","McTa","MCTa"],"type":"Village","minZoom":3},{"nameEN":"Mutnyizaliv","nameRU":"Мутный залив","lat":-79.462419960951,"lng":-50.317135497364546,"spellings":["Mutnyizaliv","Мутный залив","MyTHbIN 3anNB","MyTHblN 3anNB"],"type":"Marine","minZoom":5},{"nameEN":"Myshkino","nameRU":"Мышкино","lat":-15.708006455810184,"lng":-133.65317454292833,"spellings":["Myshkino","Мышкино","MbIWKNHo","MblWKNHo"],"type":"Village","minZoom":3},{"nameEN":"Nadezhda","nameRU":"Nadezhda","lat":-20.933115989745065,"lng":-15.412097228822894,"spellings":["Nadezhda","Nadezhda"],"type":"Camp","minZoom":5},{"nameEN":"Nadezhdino","nameRU":"Надеждино","lat":-58.17922471108637,"lng":-46.73460329974611,"spellings":["Nadezhdino","Надеждино","HaAeXANHo"],"type":"Village","minZoom":3},{"nameEN":"Nagornoe","nameRU":"Нагорное","lat":81.90684949369638,"lng":29.9236893827484,"spellings":["Nagornoye","Нагорное","HaropHoe","Nagornoe"],"type":"Village","minZoom":3},{"nameEN":"Nizhniyzaliv","nameRU":"Нижний залив","lat":12.418096472476607,"lng":113.61727879639287,"spellings":["Nizhniyzaliv","Нижний залив","HNXHNN 3anNB"],"type":"Marine","minZoom":5},{"nameEN":"Nizhnoye","nameRU":"Нижнее","lat":3.0669679012721307,"lng":109.90143077668303,"spellings":["Nizhneye","Нижнее","HNXHee","Nizhnoye"],"type":"Village","minZoom":3},{"nameEN":"Novaya","nameRU":"","lat":71.31303255764398,"lng":-100.06036714299408,"spellings":["Novaya"],"type":"RailroadStation","minZoom":6},{"nameEN":"Novaya Petrovka","nameRU":"Новая Петровка","lat":73.96582611258664,"lng":-101.35433742773137,"spellings":["Novaya Petrovka","Новая Петровка","HoBaR NeTpoBKa"],"type":"City","minZoom":2},{"nameEN":"Novo","nameRU":"","lat":79.9815479176375,"lng":82.46598829898456,"spellings":["Novo"],"type":"RailroadStation","minZoom":6},{"nameEN":"Novodmitrovsk","nameRU":"Новодмитровск","lat":80.9443576213091,"lng":76.33834202500277,"spellings":["Novodmitrovsk","Новодмитровск","HoBoAMNTpoBcK","HoBoAMNTpoBCK"],"type":"Capital","minZoom":0},{"nameEN":"Novoselki","nameRU":"Новоселки","lat":-72.23456470890169,"lng":-41.71949665789106,"spellings":["Novoselki","Новоселки","HoBocenKN","HoBoCenKN"],"type":"City","minZoom":2},{"nameEN":"Novy Lug","nameRU":"Новый луг","lat":60.66295417471768,"lng":29.132698744809947,"spellings":["Novylug","Новый луг","HoBbIN nyr","HoBblN nyr","Novy Lug"],"type":"Local","minZoom":4},{"nameEN":"Novy Sobor","nameRU":"Новый Собор","lat":-4.229016201557711,"lng":-18.945294210366487,"spellings":["Novy Sobor","Новый Собор","HoBbIN co6op","HoBblN co6op","HoBbIN Co6op","HoBblN Co6op","HoBbIN cobop","HoBblN cobop","HoBbIN Cobop","HoBblN Cobop"],"type":"Village","minZoom":3},{"nameEN":"Olsha","nameRU":"Ольша","lat":73.75700118129075,"lng":122.94418840431312,"spellings":["Olsha","Ольша","OnbWa"],"type":"Village","minZoom":3},{"nameEN":"Olsha","nameRU":"Ольша","lat":72.96242452712102,"lng":113.30992243422251,"spellings":["Olsha","Ольша","OnbWa"],"type":"Hill","minZoom":6},{"nameEN":"Orlovets","nameRU":"Орловец","lat":-15.816755951276045,"lng":96.90929654988102,"spellings":["Orlovets","Орловец","OpnoBeu","OpnoBeY","OpnoBey"],"type":"Village","minZoom":3},{"nameEN":"Orlye Ozero","nameRU":"Орлиное озеро","lat":-40.650696227926474,"lng":-166.44538641860626,"spellings":["Orlye Ozero","Орлиное озеро","OpnNHoe o3epo"],"type":"Marine","minZoom":5},{"nameEN":"Ostrog","nameRU":"Острог","lat":-77.93354635144962,"lng":-119.9185487041597,"spellings":["Ostrog","Острог","OcTpor","OCTpor"],"type":"Hill","minZoom":6},{"nameEN":"Ostry","nameRU":"Острый","lat":73.31834962876299,"lng":63.97576854680222,"spellings":["Ostry","Острый","OcTpbIN","OcTpblN","OCTpbIN","OCTpblN"],"type":"Hill","minZoom":6},{"nameEN":"Otmel","nameRU":"Отмель","lat":-72.52950870634702,"lng":81.79572543212801,"spellings":["Otmel","Отмель","OTMenb"],"type":"Local","minZoom":4},{"nameEN":"Ozerko","nameRU":"Озерко","lat":-61.44425817152659,"lng":-26.76480165970111,"spellings":["Ozerko","Озерко","O3epKo"],"type":"Marine","minZoom":5},{"nameEN":"Pass Oreshka","nameRU":"Перевал Орешка","lat":-38.935332055582776,"lng":42.04146255837327,"spellings":["Pereval Oreshka","Перевал Орешка","NepeBan OpeWKa","Pass Oreshka"],"type":"Local","minZoom":4},{"nameEN":"Pass Sosnovy","nameRU":"Сосновый перевал","lat":-29.58859513894843,"lng":-119.20290557441798,"spellings":["Sosnovypereval","Сосновый перевал","cocHoBbIN nepeBan","cocHoBblN nepeBan","CocHoBbIN nepeBan","CocHoBblN nepeBan","coCHoBbIN nepeBan","coCHoBblN nepeBan","CoCHoBbIN nepeBan","CoCHoBblN nepeBan","Pass Sosnovy"],"type":"Local","minZoom":4},{"nameEN":"Pavlovo","nameRU":"Павлово","lat":-67.57890042402532,"lng":-141.65393184701344,"spellings":["Pavlovo","Павлово","NaBnoBo"],"type":"Village","minZoom":3},{"nameEN":"Pik Kozlova","nameRU":"Пик Козлова","lat":-74.65079574872544,"lng":20.074047961813402,"spellings":["Pik Kozlova","Пик Козлова","NNK Ko3noBa"],"type":"Hill","minZoom":6},{"nameEN":"Plotina Pobeda","nameRU":"Плотина Победа","lat":78.91009370438474,"lng":44.43936197714997,"spellings":["Plotina Pobeda","Плотина Победа","NnoTNHa No6eAa","NnoTNHa NobeAa"],"type":"Marine","minZoom":5},{"nameEN":"Plotina Tishina","nameRU":"Плотина Тишина","lat":-32.64163921452374,"lng":-153.92920255851806,"spellings":["Plotina Tishina","Плотина Тишина","NnoTNHa TNWNHa"],"type":"Marine","minZoom":5},{"nameEN":"Pobeda","nameRU":"Победа","lat":82.51714092666343,"lng":-96.2419841368749,"spellings":["Pobeda","Победа","No6eAa","NobeAa"],"type":"Camp","minZoom":5},{"nameEN":"Pogorevka","nameRU":"Погоревка","lat":-34.718653599815894,"lng":-79.481615710399,"spellings":["Pogorevka","Погоревка","NoropeBKa"],"type":"Village","minZoom":3},{"nameEN":"Polana","nameRU":"Поляна","lat":4.47184978202748,"lng":64.00408601164045,"spellings":["Polyana","Поляна","NonRHa","Polana"],"type":"City","minZoom":2},{"nameEN":"Polesovo","nameRU":"Полесово","lat":77.4461083902681,"lng":-45.33936361362019,"spellings":["Polesovo","Полесово","NonecoBo","NoneCoBo"],"type":"Village","minZoom":3},{"nameEN":"Polonina","nameRU":"Полонина","lat":-64.02600420692062,"lng":-157.23631181600632,"spellings":["Polonina","Полонина","NonoHNHa"],"type":"Local","minZoom":4},{"nameEN":"Pop Ivan","nameRU":"Поп Иван","lat":-29.973439955281027,"lng":-34.8412680677032,"spellings":["Pop Ivan","Поп Иван","Non NBaH"],"type":"Hill","minZoom":6},{"nameEN":"Prigorodki","nameRU":"Пригородки","lat":-71.67710715053788,"lng":-4.563502431369106,"spellings":["Prigorodki","Пригородки","NpNropoAKN"],"type":"Village","minZoom":3},{"nameEN":"Prigorodki","nameRU":"","lat":-72.17552597711042,"lng":2.12678678324456,"spellings":["Prigorodki"],"type":"RailroadStation","minZoom":6},{"nameEN":"Proud Chernarus","nameRU":"Гордый Чернорус","lat":-37.40496485580631,"lng":-107.6269383860485,"spellings":["Proud Chernarus","Гордый Чернорус","ropAbIN YepHopyc","ropAblN YepHopyc","ropAbIN yepHopyc","ropAblN yepHopyc","ropAbIN YepHopyC","ropAblN YepHopyC","ropAbIN yepHopyC","ropAblN yepHopyC"],"type":"Camp","minZoom":5},{"nameEN":"Prud","nameRU":"Пруд","lat":29.09601048593173,"lng":-30.531047082913894,"spellings":["Prud","Пруд","NpyA"],"type":"Marine","minZoom":5},{"nameEN":"Pulkovo","nameRU":"Пулково","lat":-46.89224197893252,"lng":-66.59976817825812,"spellings":["Pulkovo","Пулково","NynKoBo"],"type":"Village","minZoom":3},{"nameEN":"Pusta","nameRU":"Пуста","lat":-67.45488248344908,"lng":27.912313189133435,"spellings":["Pusta","Пуста","NycTa","NyCTa"],"type":"Village","minZoom":3},{"nameEN":"Pustoshka","nameRU":"Пустошка","lat":-1.6044159707730135,"lng":-109.02073168929364,"spellings":["Pustoshka","Пустошка","NycToWKa","NyCToWKa"],"type":"Village","minZoom":3},{"nameEN":"Pustoy Khrebet","nameRU":"Пустой хребет","lat":-45.989002727370035,"lng":66.1736603328431,"spellings":["Pustoykhrebet","Пустой хребет","NycToN xpe6eT","NyCToN xpe6eT","NycToN xpebeT","NyCToN xpebeT","Pustoy Khrebet"],"type":"Local","minZoom":4},{"nameEN":"Radio Zenit","nameRU":"Радио Зенит","lat":29.74777366041781,"lng":2.668637969964941,"spellings":["Radio Zenit","Радио Зенит","PaANo 3eHNT"],"type":"Local","minZoom":4},{"nameEN":"Ratnoe","nameRU":"Ратное","lat":72.87348259454515,"lng":-39.91224124832924,"spellings":["Ratnoye","Ратное","PaTHoe","Ratnoe"],"type":"Village","minZoom":3},{"nameEN":"Rify","nameRU":"Рифы","lat":59.86272131119681,"lng":134.91594470817452,"spellings":["Rify","Рифы","PNObI","PNObl"],"type":"Local","minZoom":4},{"nameEN":"Rog","nameRU":"Рог","lat":-63.52502226870484,"lng":74.69841503496372,"spellings":["Rog","Рог","Por"],"type":"Ruin","minZoom":5},{"nameEN":"Rogovo","nameRU":"Рогово","lat":-26.44246361542811,"lng":-71.41351120342655,"spellings":["Rogovo","Рогово","PoroBo"],"type":"Village","minZoom":3},{"nameEN":"Romashka","nameRU":"Ромашка","lat":56.17617060656001,"lng":4.874191065327549,"spellings":["Romashka","Ромашка","PoMaWKa"],"type":"Camp","minZoom":5},{"nameEN":"Rostoki","nameRU":"Ростоки","lat":15.316161465307236,"lng":-163.11305585963402,"spellings":["Rostoki","Ростоки","PocToKN","PoCToKN"],"type":"Local","minZoom":4},{"nameEN":"SKVSCh Biathlon Arena","nameRU":"СКВСЧ Биатлон Арена","lat":58.15712593837788,"lng":-171.86932222161292,"spellings":["S K V S Ch Biathlon Arena","СКВСЧ Биатлон Арена","cKBcY BNaTnoH ApeHa","cKBcy BNaTnoH ApeHa","CKBCY BNaTnoH ApeHa","CKBCy BNaTnoH ApeHa","cKBcY GNaTnoH ApeHa","cKBcy GNaTnoH ApeHa","CKBCY GNaTnoH ApeHa","CKBCy GNaTnoH ApeHa","SKVSCh Biathlon Arena"],"type":"Local","minZoom":4},{"nameEN":"Severograd","nameRU":"","lat":70.30586544095354,"lng":-2.6067949907019234,"spellings":["Severograd"],"type":"RailroadStation","minZoom":6},{"nameEN":"Severograd","nameRU":"Североград","lat":71.57558034748497,"lng":4.668126704278311,"spellings":["Severograd","Североград","ceBeporpaA","CeBeporpaA"],"type":"City","minZoom":2},{"nameEN":"Shakhovka","nameRU":"Шаковка","lat":-30.039197482692753,"lng":39.92723498209374,"spellings":["Shakhovka","Шаковка","WaKoBKa"],"type":"Village","minZoom":3},{"nameEN":"Shishok","nameRU":"Шишок","lat":31.316467873890563,"lng":-99.49790500022227,"spellings":["Shishok","Шишок","WNWoK"],"type":"Hill","minZoom":6},{"nameEN":"Shkolnik","nameRU":"Школьник","lat":81.56261142710197,"lng":155.81556714298245,"spellings":["Shkolnik","Школьник","WKonbHNK"],"type":"Camp","minZoom":5},{"nameEN":"Simurg","nameRU":"Симург","lat":-8.822596856240736,"lng":-176.90906257190667,"spellings":["Simurg","Симург","cNMypr","CNMypr"],"type":"Hill","minZoom":6},{"nameEN":"Sinystok","nameRU":"Синысток","lat":66.15313604655061,"lng":-145.17275539867904,"spellings":["Sinystok","Синысток","cNHbIcToK","cNHblcToK","CNHbIcToK","CNHblcToK","cNHbICToK","cNHblCToK","CNHbICToK","CNHblCToK"],"type":"Village","minZoom":3},{"nameEN":"Skalisty","nameRU":"Скалистый","lat":-73.15913024486048,"lng":130.02816495929503,"spellings":["Skalisty","Скалистый","cKanNcTbIN","cKanNcTblN","CKanNcTbIN","CKanNcTblN","cKanNCTbIN","cKanNCTblN","CKanNCTbIN","CKanNCTblN"],"type":"Village","minZoom":3},{"nameEN":"Skalisty Proliv","nameRU":"Скалистый пролив","lat":-69.5964532728565,"lng":122.58078470551172,"spellings":["Skalistyproliv","Скалистый пролив","cKanNcTbIN nponNB","cKanNcTblN nponNB","CKanNcTbIN nponNB","CKanNcTblN nponNB","cKanNCTbIN nponNB","cKanNCTblN nponNB","CKanNCTbIN nponNB","CKanNCTblN nponNB","Skalisty Proliv"],"type":"Marine","minZoom":5},{"nameEN":"Skalka","nameRU":"Скалка","lat":81.27592843798904,"lng":-49.80816692144991,"spellings":["Skalka","Скалка","cKanKa","CKanKa"],"type":"Local","minZoom":4},{"nameEN":"Sokol","nameRU":"Сокол","lat":82.32826109697515,"lng":91.28196315426158,"spellings":["Sokol","Сокол","coKon","CoKon"],"type":"Hill","minZoom":6},{"nameEN":"Solnich","nameRU":"","lat":-19.23255736769775,"lng":117.16112025194988,"spellings":["Solnich"],"type":"RailroadStation","minZoom":6},{"nameEN":"Solnich2","nameRU":"","lat":-37.77136894405014,"lng":121.90706407958075,"spellings":["Solnich2"],"type":"RailroadStation","minZoom":6},{"nameEN":"Solnichniy","nameRU":"Солнечный","lat":-36.48468908454749,"lng":124.88152787421708,"spellings":["Solnechny","Солнечный","conHeчHbIN","conHeчHblN","ConHeчHbIN","ConHeчHblN","Solnichniy"],"type":"City","minZoom":2},{"nameEN":"Sosnovka","nameRU":"Сосновка","lat":-34.9968242172562,"lng":-122.17251042656416,"spellings":["Sosnovka","Сосновка","cocHoBKa","CocHoBKa","coCHoBKa","CoCHoBKa"],"type":"Village","minZoom":3},{"nameEN":"Staroye","nameRU":"Старое","lat":-50.210912587243335,"lng":50.86279355025576,"spellings":["Staroye","Старое","cTapoe","CTapoe"],"type":"Village","minZoom":3},{"nameEN":"Stary Sobor","nameRU":"Старый Собор","lat":-2.551275881944185,"lng":-41.762662146989996,"spellings":["Stary Sobor","Старый Собор","cTapbIN co6op","cTapblN co6op","CTapbIN Co6op","CTapblN Co6op","cTapbIN cobop","cTapblN cobop","CTapbIN Cobop","CTapblN Cobop"],"type":"City","minZoom":2},{"nameEN":"Stary Yar","nameRU":"Старый Яр","lat":82.8525814533676,"lng":-67.21312491864815,"spellings":["Stary Yar","Старый Яр","cTapbIN Яp","cTapblN Яp","CTapbIN Яp","CTapblN Яp"],"type":"Village","minZoom":3},{"nameEN":"Staryeluga","nameRU":"Старые луга","lat":22.72665328278731,"lng":-23.56987747440505,"spellings":["Staryeluga","Старые луга","cTapbIe nyra","cTapble nyra","CTapbIe nyra","CTapble nyra"],"type":"Local","minZoom":4},{"nameEN":"Storozh","nameRU":"Сторож","lat":-81.8072773338506,"lng":-116.28299753406687,"spellings":["Storozh","Сторож","cTopoX","CTopoX"],"type":"Ruin","minZoom":5},{"nameEN":"Stroytel","nameRU":"Строитель","lat":-62.78853669995826,"lng":-21.340865856694414,"spellings":["Stroytel","Строитель","cTpoNTenb","CTpoNTenb"],"type":"Camp","minZoom":5},{"nameEN":"Svergino","nameRU":"Свергино","lat":78.91281896625513,"lng":34.6135858737482,"spellings":["Svergino","Свергино","cBeprNHo","CBeprNHo"],"type":"Village","minZoom":3},{"nameEN":"Svetlo","nameRU":"","lat":77.08898743860435,"lng":135.7915261449074,"spellings":["Svetlo"],"type":"RailroadStation","minZoom":6},{"nameEN":"Svetlojarsk","nameRU":"Светлоярск","lat":75.91571748288679,"lng":136.22695519122624,"spellings":["Svetloyarsk","Светлоярск","cBeTnoRpcK","CBeTnoRpcK","cBeTnoRpCK","CBeTnoRpCK","Svetlojarsk"],"type":"City","minZoom":2},{"nameEN":"Svyatoy Roman","nameRU":"Святой Роман","lat":66.12267350866068,"lng":-178.02024622008267,"spellings":["Svyatoy Roman","Святой Роман","cBRToN PoMaH","CBRToN PoMaH"],"type":"Hill","minZoom":6},{"nameEN":"Svyatoy Roman Ski Resort","nameRU":"Свято-Романовский Горнолыжный курорт","lat":63.88723945751106,"lng":-165.51879738559265,"spellings":["Svyatoy Roman Ski Resort","Свято-Романовский Горнолыжный курорт","cBRTo-PoMaHoBcKNN ropHonbIXHbIN KypopT","cBRTo-PoMaHoBcKNN ropHonblXHblN KypopT","CBRTo-PoMaHoBcKNN ropHonbIXHbIN KypopT","CBRTo-PoMaHoBcKNN ropHonblXHblN KypopT","cBRTo-PoMaHoBCKNN ropHonbIXHbIN KypopT","cBRTo-PoMaHoBCKNN ropHonblXHblN KypopT","CBRTo-PoMaHoBCKNN ropHonbIXHbIN KypopT","CBRTo-PoMaHoBCKNN ropHonblXHblN KypopT"],"type":"Local","minZoom":4},{"nameEN":"Three Valleys","nameRU":"Три долины","lat":-49.816479374504155,"lng":108.53618093560122,"spellings":["Tridoliny","Три долины","TpN AonNHbI","TpN AonNHbl","Three Valleys"],"type":"Local","minZoom":4},{"nameEN":"Tikhiyzaliv","nameRU":"Тихий залив","lat":-78.63429452024876,"lng":-152.33207946185775,"spellings":["Tikhiyzaliv","Тихий залив","TNxNN 3anNB"],"type":"Marine","minZoom":5},{"nameEN":"Tisy","nameRU":"Тисы","lat":82.28757552630397,"lng":-102.15705732684384,"spellings":["Tisy","Тисы","TNcbI","TNcbl","TNCbI","TNCbl"],"type":"Village","minZoom":3},{"nameEN":"Tokarnya","nameRU":"Токарня","lat":-45.87027685547238,"lng":20.98499797992836,"spellings":["Tokarnya","Токарня","ToKapHR"],"type":"Hill","minZoom":6},{"nameEN":"Topolka Dam","nameRU":"Плотина Тополька","lat":-68.9793664049402,"lng":51.287894518816394,"spellings":["Plotina Topolka","Плотина Тополька","NnoTNHa TononbKa","Topolka Dam"],"type":"Marine","minZoom":5},{"nameEN":"Topolniki","nameRU":"Топольники","lat":70.0365528097013,"lng":-114.08756911886987,"spellings":["Topolniki","Топольники","TononbHNKN"],"type":"Village","minZoom":3},{"nameEN":"Tri Kresta","nameRU":"Три Креста","lat":32.386270251378654,"lng":-173.13490724231448,"spellings":["Tri Kresta","Три Креста","TpN KpecTa","TpN KpeCTa"],"type":"Local","minZoom":4},{"nameEN":"Tulga","nameRU":"Тулга","lat":-62.59371400605054,"lng":108.61595799137045,"spellings":["Tulga","Тулга","Tynra"],"type":"Village","minZoom":3},{"nameEN":"Tumannyverkh","nameRU":"Туманный верх","lat":74.28569630345915,"lng":-172.45185292685585,"spellings":["Tumannyverkh","Туманный верх","TyMaHHbIN Bepx","TyMaHHblN Bepx"],"type":"Hill","minZoom":6},{"nameEN":"Turovo","nameRU":"Турово","lat":80.029783055604,"lng":128.09692741716947,"spellings":["Turovo","Турово","TypoBo"],"type":"Village","minZoom":3},{"nameEN":"Turovskiypereval","nameRU":"Туровский перевал","lat":79.80548856535925,"lng":151.6964946957841,"spellings":["Turovskiypereval","Туровский перевал","TypoBcKNN nepeBan","TypoBCKNN nepeBan"],"type":"Local","minZoom":4},{"nameEN":"Vavilovo","nameRU":"Вавилово","lat":57.68906575269917,"lng":-128.79423205273483,"spellings":["Vavilovo","Вавилово","BaBNnoBo"],"type":"Village","minZoom":3},{"nameEN":"Vavilovo","nameRU":"","lat":59.87268224524871,"lng":-134.92999163068862,"spellings":["Vavilovo"],"type":"RailroadStation","minZoom":6},{"nameEN":"Verbnik","nameRU":"Вербник","lat":24.95896860029124,"lng":-80.16234225340887,"spellings":["Verbnik","Вербник","Bep6HNK","BepbHNK"],"type":"Marine","minZoom":5},{"nameEN":"Veresnik","nameRU":"Вересник","lat":2.453874395214084,"lng":-79.59077241843451,"spellings":["Veresnik","Вересник","BepecHNK","BepeCHNK"],"type":"Hill","minZoom":6},{"nameEN":"Vetryanayagora","nameRU":"Ветреная гора","lat":-64.44135048834177,"lng":-91.96254398776766,"spellings":["Vetryanayagora","Ветреная гора","BeTpeHaR ropa"],"type":"Hill","minZoom":6},{"nameEN":"Vidy","nameRU":"Виды","lat":80.97193640333992,"lng":-162.19541632069533,"spellings":["Vidy","Виды","BNAbI","BNAbl"],"type":"Local","minZoom":4},{"nameEN":"Viselitsa","nameRU":"Виселица","lat":-10.292096057882572,"lng":107.57991845379863,"spellings":["Viselitsa","Виселица","BNcenNua","BNcenNYa","BNcenNya","BNCenNua","BNCenNYa","BNCenNya"],"type":"Hill","minZoom":6},{"nameEN":"Volchiypik","nameRU":"Волчий пик","lat":-75.58645470925504,"lng":-172.6997719925183,"spellings":["Volchiypik","Волчий пик","BonчNN nNK"],"type":"Hill","minZoom":6},{"nameEN":"Voron","nameRU":"Ворон","lat":-71.8521715421513,"lng":125.5641753944905,"spellings":["Voron","Ворон","BopoH"],"type":"Ruin","minZoom":5},{"nameEN":"Vybor","nameRU":"Выбор","lat":23.238765554339924,"lng":-91.57629195939603,"spellings":["Vybor","Выбор","BbI6op","Bbl6op","BbIbop","Bblbop"],"type":"City","minZoom":2},{"nameEN":"Vyshnaya Dubrovka","nameRU":"Верхняя Дубровка","lat":49.189439684825295,"lng":44.40611777062406,"spellings":["Vyshnaya Dubrovka","Верхняя Дубровка","BepxHRR Ay6poBKa","BepxHRR AybpoBKa"],"type":"Village","minZoom":3},{"nameEN":"Vyshnoye","nameRU":"Вышное","lat":-39.59659066350966,"lng":-30.123799903038137,"spellings":["Vyshnoye","Вышное","BbIWHoe","BblWHoe"],"type":"Village","minZoom":3},{"nameEN":"Vysoky Kamen","nameRU":"Высокий камень","lat":-62.62989297689937,"lng":22.108475882591165,"spellings":["Vysokiykamen","Высокий камень","BbIcoKNN KaMeHb","BblcoKNN KaMeHb","BbICoKNN KaMeHb","BblCoKNN KaMeHb","Vysoky Kamen"],"type":"Hill","minZoom":6},{"nameEN":"Vysota","nameRU":"Высота","lat":-71.21691806747182,"lng":-30.96835190703131,"spellings":["Vysota","Высота","BbIcoTa","BblcoTa","BbICoTa","BblCoTa"],"type":"Hill","minZoom":6},{"nameEN":"Vysotovo","nameRU":"Высотово","lat":-76.4762492329915,"lng":-51.090927738861,"spellings":["Vysotovo","Высотово","BbIcoToBo","BblcoToBo","BbICoToBo","BblCoToBo"],"type":"City","minZoom":2},{"nameEN":"Willow Lake","nameRU":"Ивовое озеро","lat":62.92623914779785,"lng":119.46382959738384,"spellings":["Ivovoyeozero","Ивовое озеро","NBoBoe o3epo","Willow Lake"],"type":"Marine","minZoom":5},{"nameEN":"Youth Pioneer","nameRU":"Юный Пионер","lat":-19.665769686394142,"lng":72.18123422798587,"spellings":["Youth Pioneer","Юный Пионер","ЮHbIN NNoHep","ЮHblN NNoHep"],"type":"Camp","minZoom":5},{"nameEN":"Zabolotye","nameRU":"Заболотье","lat":41.66150279337358,"lng":-151.5327495226221,"spellings":["Zabolotye","Заболотье","3a6onoTbe","3abonoTbe"],"type":"Village","minZoom":3},{"nameEN":"Zaliv Guba","nameRU":"Залив Губа","lat":75.19976058475581,"lng":143.8799930108736,"spellings":["Zaliv Guba","Залив Губа","3anNB ry6a","3anNB ryba"],"type":"Marine","minZoom":5},{"nameEN":"Zaprudnoe","nameRU":"Запрудное","lat":73.07331725007904,"lng":-62.10242140826508,"spellings":["Zaprudnoye","Запрудное","3anpyAHoe","Zaprudnoe"],"type":"Village","minZoom":3},{"nameEN":"Zeleno","nameRU":"","lat":-52.611943609008456,"lng":-123.7710799061053,"spellings":["Zeleno"],"type":"RailroadStation","minZoom":6},{"nameEN":"Zelenogorsk","nameRU":"Зеленогорск","lat":-53.27466786651308,"lng":-116.74857462355747,"spellings":["Zelenogorsk","Зеленогорск","3eneHoropcK","3eneHoropCK"],"type":"City","minZoom":2},{"nameEN":"Zelenyzaliv","nameRU":"Зеленый залив","lat":-73.98312666865552,"lng":73.79019958448276,"spellings":["Zelenyzaliv","Зеленый залив","3eneHbIN 3anNB","3eneHblN 3anNB"],"type":"Marine","minZoom":5},{"nameEN":"Zmeinykhrebet","nameRU":"Змеиный хребет","lat":77.68394324298028,"lng":78.74295356433574,"spellings":["Zmeinykhrebet","Змеиный хребет","3MeNHbIN xpe6eT","3MeNHblN xpe6eT","3MeNHbIN xpebeT","3MeNHblN xpebeT"],"type":"Local","minZoom":4},{"nameEN":"Zolotar","nameRU":"Золотарь","lat":66.99247134444711,"lng":50.1052505164358,"spellings":["Zolotar","Золотарь","3onoTapb"],"type":"Ruin","minZoom":5},{"nameEN":"Zub","nameRU":"Зуб","lat":-47.40176917140412,"lng":-31.360457266123664,"spellings":["Zub","Зуб","3y6","3yb"],"type":"Ruin","minZoom":5},{"nameEN":"Zvir","nameRU":"Звир","lat":-51.17904222423057,"lng":-166.88992315712767,"spellings":["Zvir","Звир","3BNp"],"type":"Village","minZoom":3}]